ONEWEB-0243             
1 48774U 21045H   25304.51264234  .00000086  00000+0  19477-3 0  9997
2 48774  87.8963 304.8575 0001982 103.0464 257.0888 13.15547055214295
ONEWEB-0222             
1 48775U 21045J   25304.49600998 -.00000079  00000+0 -24295-3 0  9994
2 48775  87.8965 304.8129 0002020  95.6041 264.5320 13.15550126214336
ONEWEB-0244             
1 48776U 21045K   25304.75033458  .00000100  00000+0  23133-3 0  9998
2 48776  87.8971 304.7473 0001916  95.7626 264.3722 13.15548086214930
ONEWEB-0247             
1 48777U 21045L   25304.51898846  .00000093  00000+0  21307-3 0  9995
2 48777  87.8957 304.8563 0002341 117.0542 243.0828 13.15549804214349
ONEWEB-0245             
1 48778U 21045M   25304.51422819  .00000070  00000+0  15216-3 0  9996
2 48778  87.8961 304.8208 0002095  92.4424 267.6947 13.15550490214316
ONEWEB-0229             
1 48779U 21045N   25304.50947815 -.00000037  00000+0 -13248-3 0  9992
2 48779  87.8961 304.8215 0001867  95.6010 264.5333 13.15549498214341
ONEWEB-0228             
1 48780U 21045P   25304.77106792  .00000203  00000+0  50430-3 0  9991
2 48780  87.8969 304.7491 0001928  94.4846 265.6505 13.15549727214290
ONEWEB-0232             
1 48781U 21045Q   25304.51740161  .00000081  00000+0  18232-3 0  9996
2 48781  87.8968 304.7905 0001875  92.5185 267.6160 13.15550263214584
ONEWEB-0231             
1 48782U 21045R   25304.49522574 -.00000088  00000+0 -26660-3 0  9993
2 48782  87.8956 304.8432 0001950 100.4149 259.7201 13.15550050214279
ONEWEB-0234             
1 48783U 21045S   25304.53311100  .00000181  00000+0  44538-3 0  9996
2 48783  87.8962 304.8075 0002446  72.2993 287.8405 13.15549699214415
ONEWEB-0238             
1 48784U 21045T   25304.76156172  .00000229  00000+0  57405-3 0  9998
2 48784  87.8957 304.7563 0002034  82.4774 277.6587 13.15547420214344
ONEWEB-0240             
1 48785U 21045U   25304.70676738  .00000152  00000+0  36983-3 0  9991
2 48785  87.8967 304.7555 0002259  93.0526 267.0863 13.15548096214361
ONEWEB-0246             
1 48786U 21045V   25304.70121786  .00000136  00000+0  32795-3 0  9999
2 48786  87.8970 304.7700 0001823  96.3293 263.8045 13.15548907214234
ONEWEB-0210             
1 48787U 21045W   25304.75192240  .00000133  00000+0  31940-3 0  9996
2 48787  87.8967 304.7592 0001937 111.9285 248.2052 13.15548343214285
ONEWEB-0214             
1 48788U 21045X   25304.76064154  .00000198  00000+0  49252-3 0  9996
2 48788  87.8976 304.7444 0001732 104.8579 255.2743 13.15548949214256
ONEWEB-0221             
1 48789U 21045Y   25304.76776602  .00000143  00000+0  34646-3 0  9996
2 48789  87.8960 304.7645 0002024  96.8348 263.3013 13.15549452214342
ONEWEB-0213             
1 48790U 21045Z   25304.52850683  .00000174  00000+0  42895-3 0  9993
2 48790  87.8959 304.8215 0001946  99.3427 260.7924 13.15548979214372
