[{"OBJECT_NAME":"ONEWEB-0243","OBJECT_ID":"2021-045H","EPOCH":"2025-10-31T12:18:12.298176","MEAN_MOTION":13.15547055,"ECCENTRICITY":0.0001982,"INCLINATION":87.8963,"RA_OF_ASC_NODE":304.8575,"ARG_OF_PERICENTER":103.0464,"MEAN_ANOMALY":257.0888,"EPHEMERIS_TYPE":0,"CLASSIFICATION_TYPE":"U","NORAD_CAT_ID":48774,"ELEMENT_SET_NO":999,"REV_AT_EPOCH":21429,"BSTAR":0.00019477,"MEAN_MOTION_DOT":8.6e-7,"MEAN_MOTION_DDOT":0},{"OBJECT_NAME":"ONEWEB-0222","OBJECT_ID":"2021-045J","EPOCH":"2025-10-31T11:54:15.262272","MEAN_MOTION":13.15550126,"ECCENTRICITY":0.000202,"INCLINATION":87.8965,"RA_OF_ASC_NODE":304.8129,"ARG_OF_PERICENTER":95.6041,"MEAN_ANOMALY":264.532,"EPHEMERIS_TYPE":0,"CLASSIFICATION_TYPE":"U","NORAD_CAT_ID":48775,"ELEMENT_SET_NO":999,"REV_AT_EPOCH":21433,"BSTAR":-0.00024295,"MEAN_MOTION_DOT":-7.9e-7,"MEAN_MOTION_DDOT":0},{"OBJECT_NAME":"ONEWEB-0244","OBJECT_ID":"2021-045K","EPOCH":"2025-10-31T18:00:28.907712","MEAN_MOTION":13.15548086,"ECCENTRICITY":0.0001916,"INCLINATION":87.8971,"RA_OF_ASC_NODE":304.7473,"ARG_OF_PERICENTER":95.7626,"MEAN_ANOMALY":264.3722,"EPHEMERIS_TYPE":0,"CLASSIFICATION_TYPE":"U","NORAD_CAT_ID":48776,"ELEMENT_SET_NO":999,"REV_AT_EPOCH":21493,"BSTAR":0.00023133,"MEAN_MOTION_DOT":1.0e-6,"MEAN_MOTION_DDOT":0},{"OBJECT_NAME":"ONEWEB-0247","OBJECT_ID":"2021-045L","EPOCH":"2025-10-31T12:27:20.602944","MEAN_MOTION":13.15549804,"ECCENTRICITY":0.0002341,"INCLINATION":87.8957,"RA_OF_ASC_NODE":304.8563,"ARG_OF_PERICENTER":117.0542,"MEAN_ANOMALY":243.0828,"EPHEMERIS_TYPE":0,"CLASSIFICATION_TYPE":"U","NORAD_CAT_ID":48777,"ELEMENT_SET_NO":999,"REV_AT_EPOCH":21434,"BSTAR":0.00021307,"MEAN_MOTION_DOT":9.3e-7,"MEAN_MOTION_DDOT":0},{"OBJECT_NAME":"ONEWEB-0245","OBJECT_ID":"2021-045M","EPOCH":"2025-10-31T12:20:29.315616","MEAN_MOTION":13.1555049,"ECCENTRICITY":0.0002095,"INCLINATION":87.8961,"RA_OF_ASC_NODE":304.8208,"ARG_OF_PERICENTER":92.4424,"MEAN_ANOMALY":267.6947,"EPHEMERIS_TYPE":0,"CLASSIFICATION_TYPE":"U","NORAD_CAT_ID":48778,"ELEMENT_SET_NO":999,"REV_AT_EPOCH":21431,"BSTAR":0.00015216,"MEAN_MOTION_DOT":7.0e-7,"MEAN_MOTION_DDOT":0},{"OBJECT_NAME":"ONEWEB-0229","OBJECT_ID":"2021-045N","EPOCH":"2025-10-31T12:13:38.912160","MEAN_MOTION":13.15549498,"ECCENTRICITY":0.0001867,"INCLINATION":87.8961,"RA_OF_ASC_NODE":304.8215,"ARG_OF_PERICENTER":95.601,"MEAN_ANOMALY":264.5333,"EPHEMERIS_TYPE":0,"CLASSIFICATION_TYPE":"U","NORAD_CAT_ID":48779,"ELEMENT_SET_NO":999,"REV_AT_EPOCH":21434,"BSTAR":-0.00013248,"MEAN_MOTION_DOT":-3.7e-7,"MEAN_MOTION_DDOT":0},{"OBJECT_NAME":"ONEWEB-0228","OBJECT_ID":"2021-045P","EPOCH":"2025-10-31T18:30:20.268288","MEAN_MOTION":13.15549727,"ECCENTRICITY":0.0001928,"INCLINATION":87.8969,"RA_OF_ASC_NODE":304.7491,"ARG_OF_PERICENTER":94.4846,"MEAN_ANOMALY":265.6505,"EPHEMERIS_TYPE":0,"CLASSIFICATION_TYPE":"U","NORAD_CAT_ID":48780,"ELEMENT_SET_NO":999,"REV_AT_EPOCH":21429,"BSTAR":0.0005043,"MEAN_MOTION_DOT":2.03e-6,"MEAN_MOTION_DDOT":0},{"OBJECT_NAME":"ONEWEB-0232","OBJECT_ID":"2021-045Q","EPOCH":"2025-10-31T12:25:03.499104","MEAN_MOTION":13.15550263,"ECCENTRICITY":0.0001875,"INCLINATION":87.8968,"RA_OF_ASC_NODE":304.7905,"ARG_OF_PERICENTER":92.5185,"MEAN_ANOMALY":267.616,"EPHEMERIS_TYPE":0,"CLASSIFICATION_TYPE":"U","NORAD_CAT_ID":48781,"ELEMENT_SET_NO":999,"REV_AT_EPOCH":21458,"BSTAR":0.00018232,"MEAN_MOTION_DOT":8.1e-7,"MEAN_MOTION_DDOT":0},{"OBJECT_NAME":"ONEWEB-0231","OBJECT_ID":"2021-045R","EPOCH":"2025-10-31T11:53:07.503936","MEAN_MOTION":13.1555005,"ECCENTRICITY":0.000195,"INCLINATION":87.8956,"RA_OF_ASC_NODE":304.8432,"ARG_OF_PERICENTER":100.4149,"MEAN_ANOMALY":259.7201,"EPHEMERIS_TYPE":0,"CLASSIFICATION_TYPE":"U","NORAD_CAT_ID":48782,"ELEMENT_SET_NO":999,"REV_AT_EPOCH":21427,"BSTAR":-0.0002666,"MEAN_MOTION_DOT":-8.8e-7,"MEAN_MOTION_DDOT":0},{"OBJECT_NAME":"ONEWEB-0234","OBJECT_ID":"2021-045S","EPOCH":"2025-10-31T12:47:40.790400","MEAN_MOTION":13.15549699,"ECCENTRICITY":0.0002446,"INCLINATION":87.8962,"RA_OF_ASC_NODE":304.8075,"ARG_OF_PERICENTER":72.2993,"MEAN_ANOMALY":287.8405,"EPHEMERIS_TYPE":0,"CLASSIFICATION_TYPE":"U","NORAD_CAT_ID":48783,"ELEMENT_SET_NO":999,"REV_AT_EPOCH":21441,"BSTAR":0.00044538,"MEAN_MOTION_DOT":1.81e-6,"MEAN_MOTION_DDOT":0},{"OBJECT_NAME":"ONEWEB-0238","OBJECT_ID":"2021-045T","EPOCH":"2025-10-31T18:16:38.932608","MEAN_MOTION":13.1554742,"ECCENTRICITY":0.0002034,"INCLINATION":87.8957,"RA_OF_ASC_NODE":304.7563,"ARG_OF_PERICENTER":82.4774,"MEAN_ANOMALY":277.6587,"EPHEMERIS_TYPE":0,"CLASSIFICATION_TYPE":"U","NORAD_CAT_ID":48784,"ELEMENT_SET_NO":999,"REV_AT_EPOCH":21434,"BSTAR":0.00057405,"MEAN_MOTION_DOT":2.29e-6,"MEAN_MOTION_DDOT":0},{"OBJECT_NAME":"ONEWEB-0240","OBJECT_ID":"2021-045U","EPOCH":"2025-10-31T16:57:44.701632","MEAN_MOTION":13.15548096,"ECCENTRICITY":0.0002259,"INCLINATION":87.8967,"RA_OF_ASC_NODE":304.7555,"ARG_OF_PERICENTER":93.0526,"MEAN_ANOMALY":267.0863,"EPHEMERIS_TYPE":0,"CLASSIFICATION_TYPE":"U","NORAD_CAT_ID":48785,"ELEMENT_SET_NO":999,"REV_AT_EPOCH":21436,"BSTAR":0.00036983,"MEAN_MOTION_DOT":1.52e-6,"MEAN_MOTION_DDOT":0},{"OBJECT_NAME":"ONEWEB-0246","OBJECT_ID":"2021-045V","EPOCH":"2025-10-31T16:49:45.223104","MEAN_MOTION":13.15548907,"ECCENTRICITY":0.0001823,"INCLINATION":87.897,"RA_OF_ASC_NODE":304.77,"ARG_OF_PERICENTER":96.3293,"MEAN_ANOMALY":263.8045,"EPHEMERIS_TYPE":0,"CLASSIFICATION_TYPE":"U","NORAD_CAT_ID":48786,"ELEMENT_SET_NO":999,"REV_AT_EPOCH":21423,"BSTAR":0.00032795,"MEAN_MOTION_DOT":1.36e-6,"MEAN_MOTION_DDOT":0},{"OBJECT_NAME":"ONEWEB-0210","OBJECT_ID":"2021-045W","EPOCH":"2025-10-31T18:02:46.095360","MEAN_MOTION":13.15548343,"ECCENTRICITY":0.0001937,"INCLINATION":87.8967,"RA_OF_ASC_NODE":304.7592,"ARG_OF_PERICENTER":111.9285,"MEAN_ANOMALY":248.2052,"EPHEMERIS_TYPE":0,"CLASSIFICATION_TYPE":"U","NORAD_CAT_ID":48787,"ELEMENT_SET_NO":999,"REV_AT_EPOCH":21428,"BSTAR":0.0003194,"MEAN_MOTION_DOT":1.33e-6,"MEAN_MOTION_DDOT":0},{"OBJECT_NAME":"ONEWEB-0214","OBJECT_ID":"2021-045X","EPOCH":"2025-10-31T18:15:19.429056","MEAN_MOTION":13.15548949,"ECCENTRICITY":0.0001732,"INCLINATION":87.8976,"RA_OF_ASC_NODE":304.7444,"ARG_OF_PERICENTER":104.8579,"MEAN_ANOMALY":255.2743,"EPHEMERIS_TYPE":0,"CLASSIFICATION_TYPE":"U","NORAD_CAT_ID":48788,"ELEMENT_SET_NO":999,"REV_AT_EPOCH":21425,"BSTAR":0.00049252,"MEAN_MOTION_DOT":1.98e-6,"MEAN_MOTION_DDOT":0},{"OBJECT_NAME":"ONEWEB-0221","OBJECT_ID":"2021-045Y","EPOCH":"2025-10-31T18:25:34.984128","MEAN_MOTION":13.15549452,"ECCENTRICITY":0.0002024,"INCLINATION":87.896,"RA_OF_ASC_NODE":304.7645,"ARG_OF_PERICENTER":96.8348,"MEAN_ANOMALY":263.3013,"EPHEMERIS_TYPE":0,"CLASSIFICATION_TYPE":"U","NORAD_CAT_ID":48789,"ELEMENT_SET_NO":999,"REV_AT_EPOCH":21434,"BSTAR":0.00034646,"MEAN_MOTION_DOT":1.43e-6,"MEAN_MOTION_DDOT":0},{"OBJECT_NAME":"ONEWEB-0213","OBJECT_ID":"2021-045Z","EPOCH":"2025-10-31T12:41:02.990112","MEAN_MOTION":13.15548979,"ECCENTRICITY":0.0001946,"INCLINATION":87.8959,"RA_OF_ASC_NODE":304.8215,"ARG_OF_PERICENTER":99.3427,"MEAN_ANOMALY":260.7924,"EPHEMERIS_TYPE":0,"CLASSIFICATION_TYPE":"U","NORAD_CAT_ID":48790,"ELEMENT_SET_NO":999,"REV_AT_EPOCH":21437,"BSTAR":0.00042895,"MEAN_MOTION_DOT":1.74e-6,"MEAN_MOTION_DDOT":0}]
